[{"OBJECT_NAME":"JILIN-1 GAOFEN 3I","OBJECT_ID":"2020-065H","EPOCH":"2026-03-09T21:52:33.609504","MEAN_MOTION":15.70055987,"ECCENTRICITY":0.00105914,"INCLINATION":97.2419,"RA_OF_ASC_NODE":125.8258,"ARG_OF_PERICENTER":92.4806,"MEAN_ANOMALY":267.767,"EPHEMERIS_TYPE":0,"CLASSIFICATION_TYPE":"U","NORAD_CAT_ID":46461,"ELEMENT_SET_NO":999,"REV_AT_EPOCH":30463,"BSTAR":0.00089589772,"MEAN_MOTION_DOT":0.00109158,"MEAN_MOTION_DDOT":0},{"OBJECT_NAME":"STARLINK-11373 [DTC]","OBJECT_ID":"2024-187J","EPOCH":"2026-03-09T22:16:57.132192","MEAN_MOTION":15.69702992,"ECCENTRICITY":8.379e-5,"INCLINATION":53.16,"RA_OF_ASC_NODE":295.3765,"ARG_OF_PERICENTER":88.4558,"MEAN_ANOMALY":271.6555,"EPHEMERIS_TYPE":0,"CLASSIFICATION_TYPE":"U","NORAD_CAT_ID":61582,"ELEMENT_SET_NO":999,"REV_AT_EPOCH":8078,"BSTAR":-5.598341e-6,"MEAN_MOTION_DOT":-1.266e-5,"MEAN_MOTION_DDOT":0}]
